CCSDS_OMM_VERS = 2.0
CREATION_DATE  = 
ORIGINATOR     = 

OBJECT_NAME    = STARLINK-36344
OBJECT_ID      = 2026-025T
CENTER_NAME    = EARTH
REF_FRAME      = TEME
TIME_SYSTEM    = UTC
MEAN_ELEMENT_THEORY = SGP/SGP4

EPOCH          = 2026-02-25T20:00:03.000384
MEAN_MOTION    = 15.80885009
ECCENTRICITY   = .0001499
INCLINATION    = 97.2847
RA_OF_ASC_NODE = 167.8626
ARG_OF_PERICENTER = 79.8336
MEAN_ANOMALY   = 20.0221

EPHEMERIS_TYPE = 0
CLASSIFICATION_TYPE = U
NORAD_CAT_ID   = 67710
ELEMENT_SET_NO = 999
REV_AT_EPOCH   = 410
BSTAR          = -.64146E-3
MEAN_MOTION_DOT = -.121702E-2
MEAN_MOTION_DDOT = 0

CCSDS_OMM_VERS = 2.0
CREATION_DATE  = 
ORIGINATOR     = 

OBJECT_NAME    = STARLINK-36687
OBJECT_ID      = 2026-025U
CENTER_NAME    = EARTH
REF_FRAME      = TEME
TIME_SYSTEM    = UTC
MEAN_ELEMENT_THEORY = SGP/SGP4

EPOCH          = 2026-02-25T20:00:03.000384
MEAN_MOTION    = 15.80844483
ECCENTRICITY   = .0001976
INCLINATION    = 97.2844
RA_OF_ASC_NODE = 167.8672
ARG_OF_PERICENTER = 123.6575
MEAN_ANOMALY   = 347.5448

EPHEMERIS_TYPE = 0
CLASSIFICATION_TYPE = U
NORAD_CAT_ID   = 67711
ELEMENT_SET_NO = 999
REV_AT_EPOCH   = 410
BSTAR          = -.15661E-3
MEAN_MOTION_DOT = -.30078E-3
MEAN_MOTION_DDOT = 0

CCSDS_OMM_VERS = 2.0
CREATION_DATE  = 
ORIGINATOR     = 

OBJECT_NAME    = STARLINK-36705
OBJECT_ID      = 2026-025V
CENTER_NAME    = EARTH
REF_FRAME      = TEME
TIME_SYSTEM    = UTC
MEAN_ELEMENT_THEORY = SGP/SGP4

EPOCH          = 2026-02-25T20:00:03.000384
MEAN_MOTION    = 15.77473913
ECCENTRICITY   = .0002026
INCLINATION    = 97.2786
RA_OF_ASC_NODE = 167.8757
ARG_OF_PERICENTER = 71.4939
MEAN_ANOMALY   = 61.9504

EPHEMERIS_TYPE = 0
CLASSIFICATION_TYPE = U
NORAD_CAT_ID   = 67712
ELEMENT_SET_NO = 999
REV_AT_EPOCH   = 400
BSTAR          = -.12767E-1
MEAN_MOTION_DOT = -.1844375E-1
MEAN_MOTION_DDOT = 0

CCSDS_OMM_VERS = 2.0
CREATION_DATE  = 
ORIGINATOR     = 

OBJECT_NAME    = STARLINK-36708
OBJECT_ID      = 2026-025W
CENTER_NAME    = EARTH
REF_FRAME      = TEME
TIME_SYSTEM    = UTC
MEAN_ELEMENT_THEORY = SGP/SGP4

EPOCH          = 2026-02-25T20:00:03.000384
MEAN_MOTION    = 15.80888566
ECCENTRICITY   = .000136
INCLINATION    = 97.2819
RA_OF_ASC_NODE = 167.8913
ARG_OF_PERICENTER = 104.6711
MEAN_ANOMALY   = 67.4157

EPHEMERIS_TYPE = 0
CLASSIFICATION_TYPE = U
NORAD_CAT_ID   = 67713
ELEMENT_SET_NO = 999
REV_AT_EPOCH   = 400
BSTAR          = -.22905E-3
MEAN_MOTION_DOT = -.4394E-3
MEAN_MOTION_DDOT = 0

CCSDS_OMM_VERS = 2.0
CREATION_DATE  = 
ORIGINATOR     = 

OBJECT_NAME    = STARLINK-36702
OBJECT_ID      = 2026-025X
CENTER_NAME    = EARTH
REF_FRAME      = TEME
TIME_SYSTEM    = UTC
MEAN_ELEMENT_THEORY = SGP/SGP4

EPOCH          = 2026-02-25T20:00:03.000384
MEAN_MOTION    = 15.80867158
ECCENTRICITY   = .0001724
INCLINATION    = 97.2836
RA_OF_ASC_NODE = 167.8868
ARG_OF_PERICENTER = 118.3821
MEAN_ANOMALY   = 43.1747

EPHEMERIS_TYPE = 0
CLASSIFICATION_TYPE = U
NORAD_CAT_ID   = 67714
ELEMENT_SET_NO = 999
REV_AT_EPOCH   = 374
BSTAR          = -.22077E-3
MEAN_MOTION_DOT = -.42327E-3
MEAN_MOTION_DDOT = 0

CCSDS_OMM_VERS = 2.0
CREATION_DATE  = 
ORIGINATOR     = 

OBJECT_NAME    = STARLINK-36718
OBJECT_ID      = 2026-025Y
CENTER_NAME    = EARTH
REF_FRAME      = TEME
TIME_SYSTEM    = UTC
MEAN_ELEMENT_THEORY = SGP/SGP4

EPOCH          = 2026-02-25T20:00:03.000384
MEAN_MOTION    = 15.80863291
ECCENTRICITY   = .0001579
INCLINATION    = 97.2815
RA_OF_ASC_NODE = 167.9025
ARG_OF_PERICENTER = 82.9838
MEAN_ANOMALY   = 113.6509

EPHEMERIS_TYPE = 0
CLASSIFICATION_TYPE = U
NORAD_CAT_ID   = 67715
ELEMENT_SET_NO = 999
REV_AT_EPOCH   = 394
BSTAR          = -.26723E-5
MEAN_MOTION_DOT = -.655E-5
MEAN_MOTION_DDOT = 0

CCSDS_OMM_VERS = 2.0
CREATION_DATE  = 
ORIGINATOR     = 

OBJECT_NAME    = STARLINK-36715
OBJECT_ID      = 2026-025Z
CENTER_NAME    = EARTH
REF_FRAME      = TEME
TIME_SYSTEM    = UTC
MEAN_ELEMENT_THEORY = SGP/SGP4

EPOCH          = 2026-02-25T20:00:03.000384
MEAN_MOTION    = 15.80853688
ECCENTRICITY   = .0001613
INCLINATION    = 97.2835
RA_OF_ASC_NODE = 167.8972
ARG_OF_PERICENTER = 68.9169
MEAN_ANOMALY   = 116.0079

EPHEMERIS_TYPE = 0
CLASSIFICATION_TYPE = U
NORAD_CAT_ID   = 67716
ELEMENT_SET_NO = 999
REV_AT_EPOCH   = 400
BSTAR          = -.1339E-3
MEAN_MOTION_DOT = -.25759E-3
MEAN_MOTION_DDOT = 0

CCSDS_OMM_VERS = 2.0
CREATION_DATE  = 
ORIGINATOR     = 

OBJECT_NAME    = STARLINK-36385
OBJECT_ID      = 2026-025AA
CENTER_NAME    = EARTH
REF_FRAME      = TEME
TIME_SYSTEM    = UTC
MEAN_ELEMENT_THEORY = SGP/SGP4

EPOCH          = 2026-02-25T20:00:03.000384
MEAN_MOTION    = 15.80845627
ECCENTRICITY   = .0000781
INCLINATION    = 97.2841
RA_OF_ASC_NODE = 167.8832
ARG_OF_PERICENTER = 103.4538
MEAN_ANOMALY   = 45.8925

EPHEMERIS_TYPE = 0
CLASSIFICATION_TYPE = U
NORAD_CAT_ID   = 67717
ELEMENT_SET_NO = 999
REV_AT_EPOCH   = 400
BSTAR          = .11891E-3
MEAN_MOTION_DOT = .22725E-3
MEAN_MOTION_DDOT = 0

CCSDS_OMM_VERS = 2.0
CREATION_DATE  = 
ORIGINATOR     = 

OBJECT_NAME    = CZ-2F DEB
OBJECT_ID      = 2026-024E
CENTER_NAME    = EARTH
REF_FRAME      = TEME
TIME_SYSTEM    = UTC
MEAN_ELEMENT_THEORY = SGP/SGP4

EPOCH          = 2026-02-25T12:51:29.357280
MEAN_MOTION    = 15.20082823
ECCENTRICITY   = .0249247
INCLINATION    = 50.3164
RA_OF_ASC_NODE = 78.2036
ARG_OF_PERICENTER = 232.2339
MEAN_ANOMALY   = 125.5806

EPHEMERIS_TYPE = 0
CLASSIFICATION_TYPE = U
NORAD_CAT_ID   = 67718
ELEMENT_SET_NO = 999
REV_AT_EPOCH   = 278
BSTAR          = .34234E-2
MEAN_MOTION_DOT = .179977E-2
MEAN_MOTION_DDOT = 0

CCSDS_OMM_VERS = 2.0
CREATION_DATE  = 
ORIGINATOR     = 

OBJECT_NAME    = CZ-2F DEB
OBJECT_ID      = 2026-024F
CENTER_NAME    = EARTH
REF_FRAME      = TEME
TIME_SYSTEM    = UTC
MEAN_ELEMENT_THEORY = SGP/SGP4

EPOCH          = 2026-02-25T13:42:25.973280
MEAN_MOTION    = 14.99817082
ECCENTRICITY   = .0324524
INCLINATION    = 49.7912
RA_OF_ASC_NODE = 80.0880
ARG_OF_PERICENTER = 222.9049
MEAN_ANOMALY   = 134.6159

EPHEMERIS_TYPE = 0
CLASSIFICATION_TYPE = U
NORAD_CAT_ID   = 67719
ELEMENT_SET_NO = 999
REV_AT_EPOCH   = 242
BSTAR          = .321E-2
MEAN_MOTION_DOT = .128777E-2
MEAN_MOTION_DDOT = 0

CCSDS_OMM_VERS = 2.0
CREATION_DATE  = 
ORIGINATOR     = 

OBJECT_NAME    = CZ-2F DEB
OBJECT_ID      = 2026-024G
CENTER_NAME    = EARTH
REF_FRAME      = TEME
TIME_SYSTEM    = UTC
MEAN_ELEMENT_THEORY = SGP/SGP4

EPOCH          = 2026-02-25T12:53:32.128224
MEAN_MOTION    = 14.97156623
ECCENTRICITY   = .0335157
INCLINATION    = 49.8310
RA_OF_ASC_NODE = 80.6348
ARG_OF_PERICENTER = 219.1235
MEAN_ANOMALY   = 138.5037

EPHEMERIS_TYPE = 0
CLASSIFICATION_TYPE = U
NORAD_CAT_ID   = 67720
ELEMENT_SET_NO = 999
REV_AT_EPOCH   = 273
BSTAR          = .3303E-2
MEAN_MOTION_DOT = .129015E-2
MEAN_MOTION_DDOT = 0

CCSDS_OMM_VERS = 2.0
CREATION_DATE  = 
ORIGINATOR     = 

OBJECT_NAME    = STARLINK-36772
OBJECT_ID      = 2026-026A
CENTER_NAME    = EARTH
REF_FRAME      = TEME
TIME_SYSTEM    = UTC
MEAN_ELEMENT_THEORY = SGP/SGP4

EPOCH          = 2026-02-11T18:04:34.000320
MEAN_MOTION    = 16.07750770
ECCENTRICITY   = .00034
INCLINATION    = 97.2800
RA_OF_ASC_NODE = 95.5280
ARG_OF_PERICENTER = 259.0800
MEAN_ANOMALY   = 81.2200

EPHEMERIS_TYPE = 0
CLASSIFICATION_TYPE = U
NORAD_CAT_ID   = 67721
ELEMENT_SET_NO = 999
REV_AT_EPOCH   = 1
BSTAR          = 0
MEAN_MOTION_DOT = -.725E-5
MEAN_MOTION_DDOT = .2293429E-5

