STARLINK-36344          
1 67710U 26025T   26056.83336806 -.00121702  00000+0 -64146-3 0  9990
2 67710  97.2847 167.8626 0001499  79.8336  20.0221 15.80885009  4101
STARLINK-36687          
1 67711U 26025U   26056.83336806 -.00030078  00000+0 -15661-3 0  9994
2 67711  97.2844 167.8672 0001976 123.6575 347.5448 15.80844483  4102
STARLINK-36705          
1 67712U 26025V   26056.83336806 -.01844375  00000+0 -12767-1 0  9991
2 67712  97.2786 167.8757 0002026  71.4939  61.9504 15.77473913  4004
STARLINK-36708          
1 67713U 26025W   26056.83336806 -.00043940  00000+0 -22905-3 0  9997
2 67713  97.2819 167.8913 0001360 104.6711  67.4157 15.80888566  4006
STARLINK-36702          
1 67714U 26025X   26056.83336806 -.00042327  00000+0 -22077-3 0  9996
2 67714  97.2836 167.8868 0001724 118.3821  43.1747 15.80867158  3743
STARLINK-36718          
1 67715U 26025Y   26056.83336806 -.00000655  00000+0 -26723-5 0  9999
2 67715  97.2815 167.9025 0001579  82.9838 113.6509 15.80863291  3944
STARLINK-36715          
1 67716U 26025Z   26056.83336806 -.00025759  00000+0 -13390-3 0  9996
2 67716  97.2835 167.8972 0001613  68.9169 116.0079 15.80853688  4003
STARLINK-36385          
1 67717U 26025AA  26056.83336806  .00022725  00000+0  11891-3 0  9999
2 67717  97.2841 167.8832 0000781 103.4538  45.8925 15.80845627  4009
CZ-2F DEB               
1 67718U 26024E   26056.53575645  .00179977  00000+0  34234-2 0  9999
2 67718  50.3164  78.2036 0249247 232.2339 125.5806 15.20082823  2783
CZ-2F DEB               
1 67719U 26024F   26056.57113395  .00128777  00000+0  32100-2 0  9996
2 67719  49.7912  80.0880 0324524 222.9049 134.6159 14.99817082  2422
CZ-2F DEB               
1 67720U 26024G   26056.53717741  .00129015  00000+0  33030-2 0  9998
2 67720  49.8310  80.6348 0335157 219.1235 138.5037 14.97156623  2738
STARLINK-36772          
1 67721U 26026A   26042.75317130 -.00000725  22934-5  00000+0 0  9999
2 67721  97.2800  95.5280 0003400 259.0800  81.2200 16.07750770    15
